{"type": "FeatureCollection", "features": [ {"type": "Feature", "properties": {"norad_id": 66970, "name": "STARLINK-35703", "group": "last-30-days", "lat": -33.48670792060117, "lon": 34.18528587071539, "alt_km": 397.68575153757047, "timestamp": "2025-12-27T03:58:42.933760+00:00", "meta": {"OBJECT_NAME": "STARLINK-35703", "OBJECT_ID": "2025-288M", "EPOCH": "2025-12-26T20:00:01.999008", "MEAN_MOTION": 15.5868231, "ECCENTRICITY": 0.000119, "INCLINATION": 43.0001, "RA_OF_ASC_NODE": 81.3814, "ARG_OF_PERICENTER": 274.8825, "MEAN_ANOMALY": 324.4917, "EPHEMERIS_TYPE": 0, "CLASSIFICATION_TYPE": "U", "NORAD_CAT_ID": 66970, "ELEMENT_SET_NO": 999, "REV_AT_EPOCH": 409, "BSTAR": -0.028918, "MEAN_MOTION_DOT": -0.02003524, "MEAN_MOTION_DDOT": 0}, "tle": {"line1": "1 66970U 25288M   25360.83335647 -.02003524  00000+0 -28918-1 0  9994", "line2": "2 66970  43.0001  81.3814 0001190 274.8825 324.4917 15.58682310  4092"}}, "geometry": {"type": "Point", "coordinates": [34.18528587071539, -33.48670792060117]}}, {"type": "Feature", "properties": {"norad_id": 66971, "name": "STARLINK-35678", "group": "last-30-days", "lat": -39.638023280473455, "lon": 16.710487232442595, "alt_km": 397.9055605501935, "timestamp": "2025-12-27T03:58:42.933770+00:00", "meta": {"OBJECT_NAME": "STARLINK-35678", "OBJECT_ID": "2025-288N", "EPOCH": "2025-12-26T20:00:01.999008", "MEAN_MOTION": 15.58682665, "ECCENTRICITY": 0.0001164, "INCLINATION": 43.0003, "RA_OF_ASC_NODE": 81.421, "ARG_OF_PERICENTER": 278.0018, "MEAN_ANOMALY": 306.0358, "EPHEMERIS_TYPE": 0, "CLASSIFICATION_TYPE": "U", "NORAD_CAT_ID": 66971, "ELEMENT_SET_NO": 999, "REV_AT_EPOCH": 409, "BSTAR": -0.028898, "MEAN_MOTION_DOT": -0.02002331, "MEAN_MOTION_DDOT": 0}, "tle": {"line1": "1 66971U 25288N   25360.83335647 -.02002331  00000+0 -28898-1 0  9997", "line2": "2 66971  43.0003  81.4210 0001164 278.0018 306.0358 15.58682665  4095"}}, "geometry": {"type": "Point", "coordinates": [16.710487232442595, -39.638023280473455]}}, {"type": "Feature", "properties": {"norad_id": 66972, "name": "STARLINK-34846", "group": "last-30-days", "lat": -39.01580210583739, "lon": 19.04927921901383, "alt_km": 397.81153870504477, "timestamp": "2025-12-27T03:58:42.933779+00:00", "meta": {"OBJECT_NAME": "STARLINK-34846", "OBJECT_ID": "2025-288P", "EPOCH": "2025-12-26T20:00:01.999008", "MEAN_MOTION": 15.5868919, "ECCENTRICITY": 0.0001283, "INCLINATION": 43.0001, "RA_OF_ASC_NODE": 81.4162, "ARG_OF_PERICENTER": 278.3521, "MEAN_ANOMALY": 307.603, "EPHEMERIS_TYPE": 0, "CLASSIFICATION_TYPE": "U", "NORAD_CAT_ID": 66972, "ELEMENT_SET_NO": 999, "REV_AT_EPOCH": 409, "BSTAR": -0.029108, "MEAN_MOTION_DOT": -0.02015569, "MEAN_MOTION_DDOT": 0}, "tle": {"line1": "1 66972U 25288P   25360.83335647 -.02015569  00000+0 -29108-1 0  9990", "line2": "2 66972  43.0001  81.4162 0001283 278.3521 307.6030 15.58689190  4098"}}, "geometry": {"type": "Point", "coordinates": [19.04927921901383, -39.01580210583739]}}, {"type": "Feature", "properties": {"norad_id": 66973, "name": "STARLINK-35778", "group": "last-30-days", "lat": -38.349461670156046, "lon": 21.339869653028593, "alt_km": 397.8818133406612, "timestamp": "2025-12-27T03:58:42.933788+00:00", "meta": {"OBJECT_NAME": "STARLINK-35778", "OBJECT_ID": "2025-288Q", "EPOCH": "2025-12-26T20:00:01.999008", "MEAN_MOTION": 15.5868329, "ECCENTRICITY": 0.0001121, "INCLINATION": 43, "RA_OF_ASC_NODE": 81.4116, "ARG_OF_PERICENTER": 279.1988, "MEAN_ANOMALY": 308.6712, "EPHEMERIS_TYPE": 0, "CLASSIFICATION_TYPE": "U", "NORAD_CAT_ID": 66973, "ELEMENT_SET_NO": 999, "REV_AT_EPOCH": 409, "BSTAR": -0.028897, "MEAN_MOTION_DOT": -0.02002298, "MEAN_MOTION_DDOT": 0}, "tle": {"line1": "1 66973U 25288Q   25360.83335647 -.02002298  00000+0 -28897-1 0  9990", "line2": "2 66973  43.0000  81.4116 0001121 279.1988 308.6712 15.58683290  4097"}}, "geometry": {"type": "Point", "coordinates": [21.339869653028593, -38.349461670156046]}}, {"type": "Feature", "properties": {"norad_id": 66974, "name": "STARLINK-35780", "group": "last-30-days", "lat": -37.638976310182755, "lon": 23.588598557827275, "alt_km": 397.90939225677084, "timestamp": "2025-12-27T03:58:42.933797+00:00", "meta": {"OBJECT_NAME": "STARLINK-35780", "OBJECT_ID": "2025-288R", "EPOCH": "2025-12-26T20:00:01.999008", "MEAN_MOTION": 15.58680773, "ECCENTRICITY": 0.0001004, "INCLINATION": 43.0002, "RA_OF_ASC_NODE": 81.4067, "ARG_OF_PERICENTER": 290.1947, "MEAN_ANOMALY": 299.5957, "EPHEMERIS_TYPE": 0, "CLASSIFICATION_TYPE": "U", "NORAD_CAT_ID": 66974, "ELEMENT_SET_NO": 999, "REV_AT_EPOCH": 409, "BSTAR": -0.02886, "MEAN_MOTION_DOT": -0.01999795, "MEAN_MOTION_DDOT": 0}, "tle": {"line1": "1 66974U 25288R   25360.83335647 -.01999795  00000+0 -28860-1 0  9997", "line2": "2 66974  43.0002  81.4067 0001004 290.1947 299.5957 15.58680773  4095"}}, "geometry": {"type": "Point", "coordinates": [23.588598557827275, -37.638976310182755]}}, {"type": "Feature", "properties": {"norad_id": 66975, "name": "STARLINK-35777", "group": "last-30-days", "lat": -36.089234861367764, "lon": 27.963152612958513, "alt_km": 397.66208200540495, "timestamp": "2025-12-27T03:58:42.933806+00:00", "meta": {"OBJECT_NAME": "STARLINK-35777", "OBJECT_ID": "2025-288S", "EPOCH": "2025-12-26T20:00:01.999008", "MEAN_MOTION": 15.58701459, "ECCENTRICITY": 0.0001402, "INCLINATION": 43, "RA_OF_ASC_NODE": 81.3956, "ARG_OF_PERICENTER": 276.237, "MEAN_ANOMALY": 317.3824, "EPHEMERIS_TYPE": 0, "CLASSIFICATION_TYPE": "U", "NORAD_CAT_ID": 66975, "ELEMENT_SET_NO": 999, "REV_AT_EPOCH": 409, "BSTAR": -0.029493, "MEAN_MOTION_DOT": -0.02079139, "MEAN_MOTION_DDOT": 0}, "tle": {"line1": "1 66975U 25288S   25360.83335647 -.02079139  00000+0 -29493-1 0  9993", "line2": "2 66975  43.0000  81.3956 0001402 276.2370 317.3824 15.58701459  4094"}}, "geometry": {"type": "Point", "coordinates": [27.963152612958513, -36.089234861367764]}}, {"type": "Feature", "properties": {"norad_id": 66976, "name": "STARLINK-35772", "group": "last-30-days", "lat": 37.240665837293086, "lon": 135.56562683127555, "alt_km": 438.9188762703452, "timestamp": "2025-12-27T03:58:42.933834+00:00", "meta": {"OBJECT_NAME": "STARLINK-35772", "OBJECT_ID": "2025-288T", "EPOCH": "2025-12-26T20:00:01.999008", "MEAN_MOTION": 15.40682594, "ECCENTRICITY": 0.0001376, "INCLINATION": 43.0004, "RA_OF_ASC_NODE": 82.8211, "ARG_OF_PERICENTER": 270.1414, "MEAN_ANOMALY": 106.5233, "EPHEMERIS_TYPE": 0, "CLASSIFICATION_TYPE": "U", "NORAD_CAT_ID": 66976, "ELEMENT_SET_NO": 999, "REV_AT_EPOCH": 409, "BSTAR": 0.00070873, "MEAN_MOTION_DOT": 0.00029399, "MEAN_MOTION_DDOT": 0}, "tle": {"line1": "1 66976U 25288T   25360.83335647  .00029399  00000+0  70873-3 0  9993", "line2": "2 66976  43.0004  82.8211 0001376 270.1414 106.5233 15.40682594  4092"}}, "geometry": {"type": "Point", "coordinates": [135.56562683127555, 37.240665837293086]}}, {"type": "Feature", "properties": {"norad_id": 66977, "name": "STARLINK-35770", "group": "last-30-days", "lat": -35.25879772656878, "lon": 30.079340987316673, "alt_km": 397.88446457947884, "timestamp": "2025-12-27T03:58:42.933849+00:00", "meta": {"OBJECT_NAME": "STARLINK-35770", "OBJECT_ID": "2025-288U", "EPOCH": "2025-12-26T20:00:01.999008", "MEAN_MOTION": 15.58688457, "ECCENTRICITY": 9.02e-05, "INCLINATION": 43.0002, "RA_OF_ASC_NODE": 81.3922, "ARG_OF_PERICENTER": 285.1754, "MEAN_ANOMALY": 310.3645, "EPHEMERIS_TYPE": 0, "CLASSIFICATION_TYPE": "U", "NORAD_CAT_ID": 66977, "ELEMENT_SET_NO": 999, "REV_AT_EPOCH": 409, "BSTAR": -0.029063, "MEAN_MOTION_DOT": -0.02012521, "MEAN_MOTION_DDOT": 0}, "tle": {"line1": "1 66977U 25288U   25360.83335647 -.02012521  00000+0 -29063-1 0  9990", "line2": "2 66977  43.0002  81.3922 0000902 285.1754 310.3645 15.58688457  4096"}}, "geometry": {"type": "Point", "coordinates": [30.079340987316673, -35.25879772656878]}}, {"type": "Feature", "properties": {"norad_id": 66978, "name": "STARLINK-35787", "group": "last-30-days", "lat": -32.551984633752014, "lon": 36.17247512600887, "alt_km": 397.7094688042007, "timestamp": "2025-12-27T03:58:42.933858+00:00", "meta": {"OBJECT_NAME": "STARLINK-35787", "OBJECT_ID": "2025-288V", "EPOCH": "2025-12-26T20:00:01.999008", "MEAN_MOTION": 15.58683545, "ECCENTRICITY": 0.0001054, "INCLINATION": 42.9999, "RA_OF_ASC_NODE": 81.3775, "ARG_OF_PERICENTER": 276.9799, "MEAN_ANOMALY": 324.3099, "EPHEMERIS_TYPE": 0, "CLASSIFICATION_TYPE": "U", "NORAD_CAT_ID": 66978, "ELEMENT_SET_NO": 999, "REV_AT_EPOCH": 409, "BSTAR": -0.028934, "MEAN_MOTION_DOT": -0.02004514, "MEAN_MOTION_DDOT": 0}, "tle": {"line1": "1 66978U 25288V   25360.83335647 -.02004514  00000+0 -28934-1 0  9990", "line2": "2 66978  42.9999  81.3775 0001054 276.9799 324.3099 15.58683545  4093"}}, "geometry": {"type": "Point", "coordinates": [36.17247512600887, -32.551984633752014]}}, {"type": "Feature", "properties": {"norad_id": 66979, "name": "STARLINK-36107", "group": "last-30-days", "lat": -31.583838496283168, "lon": 38.122423044299225, "alt_km": 397.653673210586, "timestamp": "2025-12-27T03:58:42.933867+00:00", "meta": {"OBJECT_NAME": "STARLINK-36107", "OBJECT_ID": "2025-288W", "EPOCH": "2025-12-26T20:00:01.999008", "MEAN_MOTION": 15.58691341, "ECCENTRICITY": 0.0001179, "INCLINATION": 43, "RA_OF_ASC_NODE": 81.3722, "ARG_OF_PERICENTER": 272.4669, "MEAN_ANOMALY": 330.7411, "EPHEMERIS_TYPE": 0, "CLASSIFICATION_TYPE": "U", "NORAD_CAT_ID": 66979, "ELEMENT_SET_NO": 999, "REV_AT_EPOCH": 409, "BSTAR": -0.029213, "MEAN_MOTION_DOT": -0.02060672, "MEAN_MOTION_DDOT": 0}, "tle": {"line1": "1 66979U 25288W   25360.83335647 -.02060672  00000+0 -29213-1 0  9999", "line2": "2 66979  43.0000  81.3722 0001179 272.4669 330.7411 15.58691341  4098"}}, "geometry": {"type": "Point", "coordinates": [38.122423044299225, -31.583838496283168]}}]}